{"type": "FeatureCollection", "features": [ {"type": "Feature", "properties": {"norad_id": 66920, "name": "HULIANWANG DIGUI-110", "group": "last-30-days", "lat": -12.207088164605745, "lon": 67.51804227459722, "alt_km": 879.284675204849, "timestamp": "2025-12-22T08:58:19.048655+00:00", "meta": {"OBJECT_NAME": "HULIANWANG DIGUI-110", "OBJECT_ID": "2025-285F", "EPOCH": "2025-12-22T05:37:50.342016", "MEAN_MOTION": 14.03682987, "ECCENTRICITY": 0.0005594, "INCLINATION": 50.0106, "RA_OF_ASC_NODE": 78.5465, "ARG_OF_PERICENTER": 321.2579, "MEAN_ANOMALY": 38.7924, "EPHEMERIS_TYPE": 0, "CLASSIFICATION_TYPE": "U", "NORAD_CAT_ID": 66920, "ELEMENT_SET_NO": 999, "REV_AT_EPOCH": 224, "BSTAR": 0.00011981, "MEAN_MOTION_DOT": 3.8e-07, "MEAN_MOTION_DDOT": 0}, "tle": {"line1": "1 66920U 25285F   25356.23461044  .00000038  00000+0  11981-3 0  9993", "line2": "2 66920  50.0106  78.5465 0005594 321.2579  38.7924 14.03682987  2243"}}, "geometry": {"type": "Point", "coordinates": [67.51804227459722, -12.207088164605745]}}, {"type": "Feature", "properties": {"norad_id": 66921, "name": "HULIANWANG DIGUI-111", "group": "last-30-days", "lat": -9.037821773908567, "lon": 70.30341688236508, "alt_km": 878.3967571664762, "timestamp": "2025-12-22T08:58:19.048667+00:00", "meta": {"OBJECT_NAME": "HULIANWANG DIGUI-111", "OBJECT_ID": "2025-285G", "EPOCH": "2025-12-22T05:36:38.308608", "MEAN_MOTION": 14.03632544, "ECCENTRICITY": 0.0006681, "INCLINATION": 50.0122, "RA_OF_ASC_NODE": 78.5453, "ARG_OF_PERICENTER": 325.0157, "MEAN_ANOMALY": 35.0308, "EPHEMERIS_TYPE": 0, "CLASSIFICATION_TYPE": "U", "NORAD_CAT_ID": 66921, "ELEMENT_SET_NO": 999, "REV_AT_EPOCH": 224, "BSTAR": 0.00011446, "MEAN_MOTION_DOT": 2.9e-07, "MEAN_MOTION_DDOT": 0}, "tle": {"line1": "1 66921U 25285G   25356.23377672  .00000029  00000+0  11446-3 0  9993", "line2": "2 66921  50.0122  78.5453 0006681 325.0157  35.0308 14.03632544  2241"}}, "geometry": {"type": "Point", "coordinates": [70.30341688236508, -9.037821773908567]}}, {"type": "Feature", "properties": {"norad_id": 66922, "name": "HULIANWANG DIGUI-112", "group": "last-30-days", "lat": -4.992520141919402, "lon": 73.75298247253282, "alt_km": 877.7903769458098, "timestamp": "2025-12-22T08:58:19.048677+00:00", "meta": {"OBJECT_NAME": "HULIANWANG DIGUI-112", "OBJECT_ID": "2025-285H", "EPOCH": "2025-12-22T05:35:07.923840", "MEAN_MOTION": 14.03662573, "ECCENTRICITY": 0.00065, "INCLINATION": 50.0094, "RA_OF_ASC_NODE": 78.5325, "ARG_OF_PERICENTER": 335.6916, "MEAN_ANOMALY": 24.3681, "EPHEMERIS_TYPE": 0, "CLASSIFICATION_TYPE": "U", "NORAD_CAT_ID": 66922, "ELEMENT_SET_NO": 999, "REV_AT_EPOCH": 224, "BSTAR": 0.00012926, "MEAN_MOTION_DOT": 5.3e-07, "MEAN_MOTION_DDOT": 0}, "tle": {"line1": "1 66922U 25285H   25356.23273060  .00000053  00000+0  12926-3 0  9991", "line2": "2 66922  50.0094  78.5325 0006500 335.6916  24.3681 14.03662573  2248"}}, "geometry": {"type": "Point", "coordinates": [73.75298247253282, -4.992520141919402]}}, {"type": "Feature", "properties": {"norad_id": 66923, "name": "HULIANWANG DIGUI-113", "group": "last-30-days", "lat": -0.47600705762677276, "lon": 77.54893033150606, "alt_km": 878.3415440781728, "timestamp": "2025-12-22T08:58:19.048690+00:00", "meta": {"OBJECT_NAME": "HULIANWANG DIGUI-113", "OBJECT_ID": "2025-285J", "EPOCH": "2025-12-22T05:33:27.532224", "MEAN_MOTION": 14.0370044, "ECCENTRICITY": 0.0005116, "INCLINATION": 50.0094, "RA_OF_ASC_NODE": 78.5279, "ARG_OF_PERICENTER": 330.1996, "MEAN_ANOMALY": 29.8616, "EPHEMERIS_TYPE": 0, "CLASSIFICATION_TYPE": "U", "NORAD_CAT_ID": 66923, "ELEMENT_SET_NO": 999, "REV_AT_EPOCH": 224, "BSTAR": 0.00011542, "MEAN_MOTION_DOT": 3.1e-07, "MEAN_MOTION_DDOT": 0}, "tle": {"line1": "1 66923U 25285J   25356.23156866  .00000031  00000+0  11542-3 0  9995", "line2": "2 66923  50.0094  78.5279 0005116 330.1996  29.8616 14.03700440  2241"}}, "geometry": {"type": "Point", "coordinates": [77.54893033150606, -0.47600705762677276]}}, {"type": "Feature", "properties": {"norad_id": 66924, "name": "CZ-8A R/B", "group": "last-30-days", "lat": 9.435055903949987, "lon": 83.16229543632548, "alt_km": 841.5658002555601, "timestamp": "2025-12-22T08:58:19.048703+00:00", "meta": {"OBJECT_NAME": "CZ-8A R/B", "OBJECT_ID": "2025-285K", "EPOCH": "2025-12-21T16:08:52.251072", "MEAN_MOTION": 14.30505087, "ECCENTRICITY": 0.0119259, "INCLINATION": 50.008, "RA_OF_ASC_NODE": 78.1289, "ARG_OF_PERICENTER": 138.2364, "MEAN_ANOMALY": 222.7729, "EPHEMERIS_TYPE": 0, "CLASSIFICATION_TYPE": "U", "NORAD_CAT_ID": 66924, "ELEMENT_SET_NO": 999, "REV_AT_EPOCH": 220, "BSTAR": 4.9813e-05, "MEAN_MOTION_DOT": -2.5e-07, "MEAN_MOTION_DDOT": 0}, "tle": {"line1": "1 66924U 25285K   25355.67282698 -.00000025  00000+0  49813-4 0  9993", "line2": "2 66924  50.0080  78.1289 0119259 138.2364 222.7729 14.30505087  2209"}}, "geometry": {"type": "Point", "coordinates": [83.16229543632548, 9.435055903949987]}}, {"type": "Feature", "properties": {"norad_id": 66925, "name": "STARLINK-35945", "group": "last-30-days", "lat": 32.10622716546923, "lon": 30.23725741298918, "alt_km": 342.4244414724035, "timestamp": "2025-12-22T08:58:19.048714+00:00", "meta": {"OBJECT_NAME": "STARLINK-35945", "OBJECT_ID": "2025-286A", "EPOCH": "2025-12-22T04:00:01.998720", "MEAN_MOTION": 15.74278044, "ECCENTRICITY": 0.0001278, "INCLINATION": 53.1588, "RA_OF_ASC_NODE": 3.2027, "ARG_OF_PERICENTER": 88.1764, "MEAN_ANOMALY": 218.938, "EPHEMERIS_TYPE": 0, "CLASSIFICATION_TYPE": "U", "NORAD_CAT_ID": 66925, "ELEMENT_SET_NO": 999, "REV_AT_EPOCH": 350, "BSTAR": -0.0018521, "MEAN_MOTION_DOT": -0.00264567, "MEAN_MOTION_DDOT": 0}, "tle": {"line1": "1 66925U 25286A   25356.16668980 -.00264567  00000+0 -18521-2 0  9996", "line2": "2 66925  53.1588   3.2027 0001278  88.1764 218.9380 15.74278044  3507"}}, "geometry": {"type": "Point", "coordinates": [30.23725741298918, 32.10622716546923]}}, {"type": "Feature", "properties": {"norad_id": 66926, "name": "STARLINK-35942", "group": "last-30-days", "lat": 34.52660880477595, "lon": 33.21786196999882, "alt_km": 344.8764048697203, "timestamp": "2025-12-22T08:58:19.048724+00:00", "meta": {"OBJECT_NAME": "STARLINK-35942", "OBJECT_ID": "2025-286B", "EPOCH": "2025-12-22T04:00:01.998720", "MEAN_MOTION": 15.74225539, "ECCENTRICITY": 9.28e-05, "INCLINATION": 53.1591, "RA_OF_ASC_NODE": 3.1941, "ARG_OF_PERICENTER": 108.2108, "MEAN_ANOMALY": 202.7242, "EPHEMERIS_TYPE": 0, "CLASSIFICATION_TYPE": "U", "NORAD_CAT_ID": 66926, "ELEMENT_SET_NO": 999, "REV_AT_EPOCH": 350, "BSTAR": -0.015714, "MEAN_MOTION_DOT": -0.02032495, "MEAN_MOTION_DDOT": 0}, "tle": {"line1": "1 66926U 25286B   25356.16668980 -.02032495  00000+0 -15714-1 0  9992", "line2": "2 66926  53.1591   3.1941 0000928 108.2108 202.7242 15.74225539  3502"}}, "geometry": {"type": "Point", "coordinates": [33.21786196999882, 34.52660880477595]}}, {"type": "Feature", "properties": {"norad_id": 66927, "name": "STARLINK-35943", "group": "last-30-days", "lat": 35.83248226195126, "lon": 34.941204891139364, "alt_km": 344.5813278531359, "timestamp": "2025-12-22T08:58:19.048735+00:00", "meta": {"OBJECT_NAME": "STARLINK-35943", "OBJECT_ID": "2025-286C", "EPOCH": "2025-12-22T04:00:01.998720", "MEAN_MOTION": 15.74193324, "ECCENTRICITY": 0.0001109, "INCLINATION": 53.1591, "RA_OF_ASC_NODE": 3.1906, "ARG_OF_PERICENTER": 119.1005, "MEAN_ANOMALY": 193.7732, "EPHEMERIS_TYPE": 0, "CLASSIFICATION_TYPE": "U", "NORAD_CAT_ID": 66927, "ELEMENT_SET_NO": 999, "REV_AT_EPOCH": 350, "BSTAR": -0.015433, "MEAN_MOTION_DOT": -0.01998066, "MEAN_MOTION_DDOT": 0}, "tle": {"line1": "1 66927U 25286C   25356.16668980 -.01998066  00000+0 -15433-1 0  9995", "line2": "2 66927  53.1591   3.1906 0001109 119.1005 193.7732 15.74193324  3502"}}, "geometry": {"type": "Point", "coordinates": [34.941204891139364, 35.83248226195126]}}, {"type": "Feature", "properties": {"norad_id": 66928, "name": "STARLINK-35944", "group": "last-30-days", "lat": 33.21585033544921, "lon": 31.572082681412738, "alt_km": 345.212425791804, "timestamp": "2025-12-22T08:58:19.048751+00:00", "meta": {"OBJECT_NAME": "STARLINK-35944", "OBJECT_ID": "2025-286D", "EPOCH": "2025-12-22T04:00:01.998720", "MEAN_MOTION": 15.74249549, "ECCENTRICITY": 7.94e-05, "INCLINATION": 53.159, "RA_OF_ASC_NODE": 3.1983, "ARG_OF_PERICENTER": 114.8828, "MEAN_ANOMALY": 194.1493, "EPHEMERIS_TYPE": 0, "CLASSIFICATION_TYPE": "U", "NORAD_CAT_ID": 66928, "ELEMENT_SET_NO": 999, "REV_AT_EPOCH": 350, "BSTAR": -0.016151, "MEAN_MOTION_DOT": -0.02083873, "MEAN_MOTION_DDOT": 0}, "tle": {"line1": "1 66928U 25286D   25356.16668980 -.02083873  00000+0 -16151-1 0  9996", "line2": "2 66928  53.1590   3.1983 0000794 114.8828 194.1493 15.74249549  3501"}}, "geometry": {"type": "Point", "coordinates": [31.572082681412738, 33.21585033544921]}}, {"type": "Feature", "properties": {"norad_id": 66929, "name": "STARLINK-36169", "group": "last-30-days", "lat": 37.12892974695738, "lon": 36.743597372642526, "alt_km": 344.2926159062372, "timestamp": "2025-12-22T08:58:19.048761+00:00", "meta": {"OBJECT_NAME": "STARLINK-36169", "OBJECT_ID": "2025-286E", "EPOCH": "2025-12-22T04:00:01.998720", "MEAN_MOTION": 15.74226252, "ECCENTRICITY": 8.17e-05, "INCLINATION": 53.159, "RA_OF_ASC_NODE": 3.1858, "ARG_OF_PERICENTER": 86.5732, "MEAN_ANOMALY": 228.2293, "EPHEMERIS_TYPE": 0, "CLASSIFICATION_TYPE": "U", "NORAD_CAT_ID": 66929, "ELEMENT_SET_NO": 999, "REV_AT_EPOCH": 350, "BSTAR": -0.015968, "MEAN_MOTION_DOT": -0.02061252, "MEAN_MOTION_DDOT": 0}, "tle": {"line1": "1 66929U 25286E   25356.16668980 -.02061252  00000+0 -15968-1 0  9999", "line2": "2 66929  53.1590   3.1858 0000817  86.5732 228.2293 15.74226252  3501"}}, "geometry": {"type": "Point", "coordinates": [36.743597372642526, 37.12892974695738]}}]}